{
    "links": {
        "self": "http://www.neowsapp.com/rest/v1/neo/3826653?api_key=iIulBulltgU6a56xZRHN4H3l9WmuAYTsLGpBGhQ2"
    },
    "id": "3826653",
    "neo_reference_id": "3826653",
    "name": "(2018 PC9)",
    "designation": "2018 PC9",
    "nasa_jpl_url": "http://ssd.jpl.nasa.gov/sbdb.cgi?sstr=3826653",
    "absolute_magnitude_h": 23.7,
    "estimated_diameter": {
        "kilometers": {
            "estimated_diameter_min": 0.0483676488,
            "estimated_diameter_max": 0.1081533507
        },
        "meters": {
            "estimated_diameter_min": 48.3676488219,
            "estimated_diameter_max": 108.1533506775
        },
        "miles": {
            "estimated_diameter_min": 0.0300542543,
            "estimated_diameter_max": 0.0672033557
        },
        "feet": {
            "estimated_diameter_min": 158.6865169607,
            "estimated_diameter_max": 354.8338390368
        }
    },
    "is_potentially_hazardous_asteroid": false,
    "close_approach_data": [
        {
            "close_approach_date": "2018-08-06",
            "close_approach_date_full": "2018-Aug-06 05:58",
            "epoch_date_close_approach": 1533535080000,
            "relative_velocity": {
                "kilometers_per_second": "19.0164016443",
                "kilometers_per_hour": "68459.0459193054",
                "miles_per_hour": "42537.7888380262"
            },
            "miss_distance": {
                "astronomical": "0.1246000536",
                "lunar": "48.4694208504",
                "kilometers": "18639902.620445832",
                "miles": "11582298.4100312016"
            },
            "orbiting_body": "Earth"
        }
    ],
    "orbital_data": {
        "orbit_id": "1",
        "orbit_determination_date": "2018-08-10 05:12:05",
        "first_observation_date": "2018-08-06",
        "last_observation_date": "2018-08-09",
        "data_arc_in_days": 3,
        "observations_used": 13,
        "orbit_uncertainty": "9",
        "minimum_orbit_intersection": ".121261",
        "jupiter_tisserand_invariant": "4.292",
        "epoch_osculation": "2458337.5",
        "eccentricity": ".2499094905754751",
        "semi_major_axis": "1.507419021452118",
        "inclination": "36.28542641384699",
        "ascending_node_longitude": "133.6706909829058",
        "orbital_period": "676.0042301459068",
        "perihelion_distance": "1.130700701717238",
        "perihelion_argument": "192.1703309645279",
        "aphelion_distance": "1.884137341186997",
        "perihelion_time": "2458348.310752347606",
        "mean_anomaly": "354.2428306339175",
        "mean_motion": ".5325410462628297",
        "equinox": "J2000",
        "orbit_class": {
            "orbit_class_type": "AMO",
            "orbit_class_description": "Near-Earth asteroid orbits similar to that of 1221 Amor",
            "orbit_class_range": "1.017 AU < q (perihelion) < 1.3 AU"
        }
    },
    "is_sentry_object": false
}